STARLINK-4079           
1 52666U 22053L   26195.61451997 -.00000418  00000+0 -81778-5 0  9992
2 52666  53.1621 303.6915 0001208  85.3114 274.8015 15.08830935230212
STARLINK-4076           
1 52667U 22053M   26195.57408278  .00000010  00000+0  18719-4 0  9992
2 52667  53.1605 304.2580 0001035  83.5721 276.5388 15.08833747230207
STARLINK-4067           
1 52668U 22053N   26196.00002315 -.00025772  00000+0 -82119-3 0  9992
2 52668  53.1611 300.0433 0000923  80.9460 136.8513 15.31715951  5763
STARLINK-3972           
1 52669U 22053P   26196.16670139  .00080144  00000+0  40678-2 0  9990
2 52669  53.1591 301.3978 0001725 102.0482  40.4257 15.16222154  5834
STARLINK-4075           
1 52670U 22053Q   26195.58513221 -.00000376  00000+0 -55611-5 0  9992
2 52670  53.1604 304.2757 0001054  87.2118 272.8994 15.08831486230208
STARLINK-4071           
1 52671U 22053R   26195.62560463  .00000341  00000+0  39515-4 0  9992
2 52671  53.1607 304.0267 0001197  87.1038 273.0090 15.08834300230202
STARLINK-4073           
1 52672U 22053S   26195.57040347 -.00000209  00000+0  49359-5 0  9993
2 52672  53.1620 304.2769 0001242  91.7069 268.4064 15.08838315230190
STARLINK-3976           
1 52673U 22053T   26196.16670139  .00074145  00000+0  41258-2 0  9994
2 52673  53.1599 301.4214 0001516  68.2077 122.1739 15.12999472  5688
STARLINK-3936           
1 52674U 22053U   26196.00002315 -.00353526  00000+0 -36047-2 0  9998
2 52674  53.2168 281.0198 0001023  60.5551   0.7100 15.65539138  5939
STARLINK-3934           
1 52675U 22053V   26195.54923879 -.00001195  00000+0 -57050-4 0  9995
2 52675  53.1599 294.3675 0001097  97.7440 262.3676 15.08829858230329
STARLINK-4006           
1 52676U 22053W   26196.16670139  .00079260  00000+0  44352-2 0  9998
2 52676  53.1591 301.4915 0001055  83.5758  49.0697 15.12763911  5738
STARLINK-4074           
1 52678U 22053Y   26195.56029796 -.00000526  00000+0 -14942-4 0  9995
2 52678  53.1617 294.4289 0001466  95.1230 264.9929 15.08832272230327
STARLINK-4031           
1 52679U 22053Z   26195.59706529  .00002586  00000+0  18044-3 0  9997
2 52679  53.1605 294.1535 0001125  83.7609 276.3511 15.08850860230294
STARLINK-3774           
1 52680U 22053AA  26195.58970318  .00007421  00000+0  48438-3 0  9990
2 52680  53.1611 293.9518 0001335  93.5666 266.5478 15.08799913230313
STARLINK-4068           
1 52681U 22053AB  26195.59340453  .00001061  00000+0  84771-4 0  9998
2 52681  53.1602 294.1695 0000852  80.8370 279.2717 15.08834826230294
STARLINK-4017           
1 52682U 22053AC  26195.53820525  .00000241  00000+0  33256-4 0  9997
2 52682  53.1604 294.4186 0001183  84.1419 275.9707 15.08835107230301
STARLINK-4014           
1 52684U 22053AE  26195.53452405  .00000204  00000+0  30884-4 0  9990
2 52684  53.1606 294.4353 0001138  86.8214 273.2908 15.08835107230284
STARLINK-4029           
1 52685U 22053AF  26195.57869301  .00001279  00000+0  98428-4 0  9993
2 52685  53.1606 294.2361 0001222  86.2781 273.8350 15.08840603230272
STARLINK-4005           
1 52686U 22053AG  26195.55024234  .00000541  00000+0  52088-4 0  9993
2 52686  53.1617 294.6464 0001159  97.9524 262.1599 15.08837652230272
STARLINK-3981           
1 52687U 22053AH  26195.57500730 -.00000093  00000+0  12254-4 0  9990
2 52687  53.1606 294.2526 0000966  90.9914 269.1188 15.08829138230278
STARLINK-4032           
1 52688U 22053AJ  26195.57131103 -.00000392  00000+0 -65774-5 0  9994
2 52688  53.1606 294.1527 0000946  83.6455 276.4644 15.08828807230276
STARLINK-4078           
1 52689U 22053AK  26196.16670139  .00240300  00000+0  92401-3 0  9996
2 52689  53.1998 179.2977 0008120  46.3278  67.4028 15.86143876  5922
STARLINK-4035           
1 52690U 22053AL  26195.58236667  .00000456  00000+0  46735-4 0  9993
2 52690  53.1609 294.2200 0001137  84.0897 276.0223 15.08829626230278
STARLINK-3993           
1 52692U 22053AN  26195.54553140 -.00000427  00000+0 -87196-5 0  9996
2 52692  53.1605 294.1168 0001193  76.5047 283.6077 15.08833465230304
STARLINK-3946           
1 52693U 22053AP  26195.55292482  .00000211  00000+0  31349-4 0  9994
2 52693  53.1622 294.3548 0001291  89.0587 271.0553 15.08833150230306
STARLINK-4072           
1 52694U 22053AQ  26195.58105334  .00018853  00000+0  75099-3 0  9997
2 52694  53.1596 292.2739 0001153  70.5086 289.6037 15.25280892230335
STARLINK-4041           
1 52695U 22053AR  26195.60580444  .00001556  00000+0  11589-3 0  9996
2 52695  53.1617 298.9122 0001057  71.5231 288.5875 15.08826317230253
STARLINK-4018           
1 52697U 22053AT  26195.56630191 -.00000981  00000+0 -43523-4 0  9995
2 52697  53.1627 299.2961 0001321  96.1461 263.9681 15.08835757230242
STARLINK-4030           
1 52698U 22053AU  26195.64262302 -.00000316  00000+0 -17420-5 0  9990
2 52698  53.1603 298.9399 0001118  88.8769 271.2351 15.08831749230244
STARLINK-3987           
1 52699U 22053AV  26196.16670139  .00086530  00000+0  29664-2 0  9990
2 52699  53.1587 284.5211 0000466  68.6267  17.9701 15.29462486  5788
