OBJECT_NAME,OBJECT_ID,EPOCH,MEAN_MOTION,ECCENTRICITY,INCLINATION,RA_OF_ASC_NODE,ARG_OF_PERICENTER,MEAN_ANOMALY,EPHEMERIS_TYPE,CLASSIFICATION_TYPE,NORAD_CAT_ID,ELEMENT_SET_NO,REV_AT_EPOCH,BSTAR,MEAN_MOTION_DOT,MEAN_MOTION_DDOT
STARLINK-4079,2022-053L,2026-07-14T14:44:54.525408,15.08830935,.00012086,53.1621,303.6915,85.3114,274.8015,0,U,52666,999,23021,-.8177787E-5,-.418E-5,0
STARLINK-4076,2022-053M,2026-07-14T13:46:40.752192,15.08833747,.0001035,53.1605,304.2580,83.5721,276.5388,0,U,52667,999,23020,.18719E-4,.1E-6,0
STARLINK-4067,2022-053N,2026-07-15T00:00:02.000160,15.31715951,.0000923,53.1611,300.0433,80.9460,136.8513,0,U,52668,999,576,-.82119E-3,-.25772E-3,0
STARLINK-3972,2022-053P,2026-07-15T04:00:03.000096,15.16222154,.0001725,53.1591,301.3978,102.0482,40.4257,0,U,52669,999,583,.40678E-2,.80144E-3,0
STARLINK-4075,2022-053Q,2026-07-14T14:02:35.422944,15.08831486,.0001054,53.1604,304.2757,87.2118,272.8994,0,U,52670,999,23020,-.55611E-5,-.376E-5,0
STARLINK-4071,2022-053R,2026-07-14T15:00:52.240032,15.08834300,.00011978,53.1607,304.0267,87.1038,273.0090,0,U,52671,999,23020,.39515432E-4,.341E-5,0
STARLINK-4073,2022-053S,2026-07-14T13:41:22.859808,15.08838315,.0001242,53.1620,304.2769,91.7069,268.4064,0,U,52672,999,23019,.49359E-5,-.209E-5,0
STARLINK-3976,2022-053T,2026-07-15T04:00:03.000096,15.12999472,.0001516,53.1599,301.4214,68.2077,122.1739,0,U,52673,999,568,.41258E-2,.74145E-3,0
STARLINK-3936,2022-053U,2026-07-15T00:00:02.000160,15.65539138,.0001023,53.2168,281.0198,60.5551,0.7100,0,U,52674,999,593,-.36047E-2,-.353526E-2,0
STARLINK-3934,2022-053V,2026-07-14T13:10:54.231456,15.08829858,.00010973,53.1599,294.3675,97.7440,262.3676,0,U,52675,999,23032,-.57049874E-4,-.1195E-4,0
STARLINK-4006,2022-053W,2026-07-15T04:00:03.000096,15.12763911,.0001055,53.1591,301.4915,83.5758,49.0697,0,U,52676,999,573,.44352E-2,.7926E-3,0
STARLINK-4074,2022-053Y,2026-07-14T13:26:49.743744,15.08832272,.0001466,53.1617,294.4289,95.1230,264.9929,0,U,52678,999,23032,-.14942E-4,-.526E-5,0
STARLINK-4031,2022-053Z,2026-07-14T14:19:46.441056,15.08850860,.0001125,53.1605,294.1535,83.7609,276.3511,0,U,52679,999,23029,.18044E-3,.2586E-4,0
STARLINK-3774,2022-053AA,2026-07-14T14:09:10.354752,15.08799913,.0001335,53.1611,293.9518,93.5666,266.5478,0,U,52680,999,23031,.48438E-3,.7421E-4,0
STARLINK-4068,2022-053AB,2026-07-14T14:14:30.151392,15.08834826,.0000852,53.1602,294.1695,80.8370,279.2717,0,U,52681,999,23029,.84771E-4,.1061E-4,0
STARLINK-4017,2022-053AC,2026-07-14T12:55:00.933600,15.08835107,.00011834,53.1604,294.4186,84.1419,275.9707,0,U,52682,999,23030,.33256299E-4,.241E-5,0
STARLINK-4014,2022-053AE,2026-07-14T12:49:42.877920,15.08835107,.00011387,53.1606,294.4353,86.8214,273.2908,0,U,52684,999,23028,.30883891E-4,.204E-5,0
STARLINK-4029,2022-053AF,2026-07-14T13:53:19.076064,15.08840603,.0001222,53.1606,294.2361,86.2781,273.8350,0,U,52685,999,23027,.98428E-4,.1279E-4,0
STARLINK-4005,2022-053AG,2026-07-14T13:12:20.938176,15.08837652,.00011592,53.1617,294.6464,97.9524,262.1599,0,U,52686,999,23027,.52088093E-4,.541E-5,0
STARLINK-3981,2022-053AH,2026-07-14T13:48:00.630720,15.08829138,.0000966,53.1606,294.2526,90.9914,269.1188,0,U,52687,999,23027,.12254E-4,-.93E-6,0
STARLINK-4032,2022-053AJ,2026-07-14T13:42:41.272992,15.08828807,.0000946,53.1606,294.1527,83.6455,276.4644,0,U,52688,999,23027,-.65774E-5,-.392E-5,0
STARLINK-4078,2022-053AK,2026-07-15T04:00:03.000096,15.86143876,.000812,53.1998,179.2977,46.3278,67.4028,0,U,52689,999,592,.92401E-3,.2403E-2,0
STARLINK-4035,2022-053AL,2026-07-14T13:58:36.480288,15.08829626,.0001137,53.1609,294.2200,84.0897,276.0223,0,U,52690,999,23027,.46735E-4,.456E-5,0
STARLINK-3993,2022-053AN,2026-07-14T13:05:33.912960,15.08833465,.00011931,53.1605,294.1168,76.5047,283.6077,0,U,52692,999,23030,-.8719565E-5,-.427E-5,0
STARLINK-3946,2022-053AP,2026-07-14T13:16:12.704448,15.08833150,.00012915,53.1622,294.3548,89.0587,271.0553,0,U,52693,999,23030,.31348534E-4,.211E-5,0
STARLINK-4072,2022-053AQ,2026-07-14T13:56:43.008576,15.25280892,.0001153,53.1596,292.2739,70.5086,289.6037,0,U,52694,999,23033,.75099E-3,.18853E-3,0
STARLINK-4041,2022-053AR,2026-07-14T14:32:21.503616,15.08826317,.0001057,53.1617,298.9122,71.5231,288.5875,0,U,52695,999,23025,.11589E-3,.1556E-4,0
STARLINK-4018,2022-053AT,2026-07-14T13:35:28.485024,15.08835757,.0001321,53.1627,299.2961,96.1461,263.9681,0,U,52697,999,23024,-.43523E-4,-.981E-5,0
STARLINK-4030,2022-053AU,2026-07-14T15:25:22.628928,15.08831749,.00011183,53.1603,298.9399,88.8769,271.2351,0,U,52698,999,23024,-.1742018E-5,-.316E-5,0
STARLINK-3987,2022-053AV,2026-07-15T04:00:03.000096,15.29462486,.0000466,53.1587,284.5211,68.6267,17.9701,0,U,52699,999,578,.29664E-2,.8653E-3,0
